{
    "links": {
        "self": "http://www.neowsapp.com/rest/v1/neo/3669221?api_key=iIulBulltgU6a56xZRHN4H3l9WmuAYTsLGpBGhQ2"
    },
    "id": "3669221",
    "neo_reference_id": "3669221",
    "name": "(2014 HL123)",
    "designation": "2014 HL123",
    "nasa_jpl_url": "http://ssd.jpl.nasa.gov/sbdb.cgi?sstr=3669221",
    "absolute_magnitude_h": 22.4,
    "estimated_diameter": {
        "kilometers": {
            "estimated_diameter_min": 0.0880146521,
            "estimated_diameter_max": 0.1968067451
        },
        "meters": {
            "estimated_diameter_min": 88.0146520901,
            "estimated_diameter_max": 196.8067450894
        },
        "miles": {
            "estimated_diameter_min": 0.0546897524,
            "estimated_diameter_max": 0.122290004
        },
        "feet": {
            "estimated_diameter_min": 288.7619911632,
            "estimated_diameter_max": 645.6914415591
        }
    },
    "is_potentially_hazardous_asteroid": false,
    "close_approach_data": [
        {
            "close_approach_date": "2014-01-15",
            "close_approach_date_full": "2014-Jan-15 14:21",
            "epoch_date_close_approach": 1389795660000,
            "relative_velocity": {
                "kilometers_per_second": "6.7922480729",
                "kilometers_per_hour": "24452.0930625078",
                "miles_per_hour": "15193.5797143121"
            },
            "miss_distance": {
                "astronomical": "0.2218101185",
                "lunar": "86.2841360965",
                "kilometers": "33182321.272047595",
                "miles": "20618538.344123011"
            },
            "orbiting_body": "Earth"
        },
        {
            "close_approach_date": "2014-03-22",
            "close_approach_date_full": "2014-Mar-22 00:15",
            "epoch_date_close_approach": 1395447300000,
            "relative_velocity": {
                "kilometers_per_second": "5.8485945561",
                "kilometers_per_hour": "21054.9404021205",
                "miles_per_hour": "13082.7211626398"
            },
            "miss_distance": {
                "astronomical": "0.2162436739",
                "lunar": "84.1187891471",
                "kilometers": "32349593.016414593",
                "miles": "20101104.9997756634"
            },
            "orbiting_body": "Earth"
        }
    ],
    "orbital_data": {
        "orbit_id": "12",
        "orbit_determination_date": "2017-04-06 08:41:25",
        "first_observation_date": "2014-04-23",
        "last_observation_date": "2014-05-04",
        "data_arc_in_days": 11,
        "observations_used": 33,
        "orbit_uncertainty": "8",
        "minimum_orbit_intersection": ".175181",
        "jupiter_tisserand_invariant": "4.100",
        "epoch_osculation": "2456773.5",
        "eccentricity": ".3906793004384628",
        "semi_major_axis": "1.694073793488156",
        "inclination": "11.87719300905982",
        "ascending_node_longitude": "43.50315594995533",
        "orbital_period": "805.3727167855841",
        "perihelion_distance": "1.03223422895707",
        "perihelion_argument": "100.3256697346829",
        "aphelion_distance": "2.355913358019241",
        "perihelion_time": "2456697.118709935324",
        "mean_anomaly": "34.1422844978296",
        "mean_motion": ".4469980078749594",
        "equinox": "J2000",
        "orbit_class": {
            "orbit_class_type": "AMO",
            "orbit_class_description": "Near-Earth asteroid orbits similar to that of 1221 Amor",
            "orbit_class_range": "1.017 AU < q (perihelion) < 1.3 AU"
        }
    },
    "is_sentry_object": false
}